{
  "type": "FeatureCollection",
  "features": [
    {
      "type": "Feature",
      "properties": {
        "norad_id": 29486,
        "name": "GPS BIIRM-2 (PRN 31)",
        "group": "gps-ops",
        "lat": -54.660335297340005,
        "lon": 66.13462220955586,
        "alt_km": 20416.57294769873,
        "timestamp": "2025-12-25T20:42:38.946590+00:00",
        "meta_object_name": "GPS BIIRM-2 (PRN 31)",
        "meta_object_id": "2006-042A",
        "meta_epoch": "2025-12-24T23:42:55.072224",
        "meta_mean_motion": 2.00553643,
        "meta_eccentricity": 0.01072754,
        "meta_inclination": 54.6955,
        "meta_ra_of_asc_node": 158.2549,
        "meta_arg_of_pericenter": 52.2355,
        "meta_mean_anomaly": 305.6317,
        "meta_ephemeris_type": 0,
        "meta_classification_type": "U",
        "meta_norad_cat_id": 29486,
        "meta_element_set_no": 999,
        "meta_rev_at_epoch": 14089,
        "meta_bstar": 0,
        "meta_mean_motion_dot": 9.7e-07,
        "meta_mean_motion_ddot": 0,
        "tle_line1": "1 29486U 06042A   25358.98813741  .00000097  00000+0  00000+0 0  9999",
        "tle_line2": "2 29486  54.6955 158.2549 0107275  52.2355 305.6317  2.00553643140898"
      },
      "geometry": {
        "type": "Point",
        "coordinates": [
          66.13462220955586,
          -54.660335297340005
        ]
      }
    },
    {
      "type": "Feature",
      "properties": {
        "norad_id": 29601,
        "name": "GPS BIIRM-3 (PRN 12)",
        "group": "gps-ops",
        "lat": -26.364481462912984,
        "lon": -159.45285932010373,
        "alt_km": 20301.39541230513,
        "timestamp": "2025-12-25T20:42:38.946602+00:00",
        "meta_object_name": "GPS BIIRM-3 (PRN 12)",
        "meta_object_id": "2006-052A",
        "meta_epoch": "2025-12-23T21:56:47.372352",
        "meta_mean_motion": 2.0057433,
        "meta_eccentricity": 0.00880015,
        "meta_inclination": 54.9684,
        "meta_ra_of_asc_node": 220.9547,
        "meta_arg_of_pericenter": 87.5747,
        "meta_mean_anomaly": 273.5181,
        "meta_ephemeris_type": 0,
        "meta_classification_type": "U",
        "meta_norad_cat_id": 29601,
        "meta_element_set_no": 999,
        "meta_rev_at_epoch": 13989,
        "meta_bstar": 0,
        "meta_mean_motion_dot": 6.7e-07,
        "meta_mean_motion_ddot": 0,
        "tle_line1": "1 29601U 06052A   25357.91443718  .00000067  00000+0  00000+0 0  9991",
        "tle_line2": "2 29601  54.9684 220.9547 0088001  87.5747 273.5181  2.00574330139891"
      },
      "geometry": {
        "type": "Point",
        "coordinates": [
          -159.45285932010373,
          -26.364481462912984
        ]
      }
    },
    {
      "type": "Feature",
      "properties": {
        "norad_id": 32260,
        "name": "GPS BIIRM-4 (PRN 15)",
        "group": "gps-ops",
        "lat": 50.1413587242653,
        "lon": -153.32178252415704,
        "alt_km": 19774.265446090656,
        "timestamp": "2025-12-25T20:42:38.946614+00:00",
        "meta_object_name": "GPS BIIRM-4 (PRN 15)",
        "meta_object_id": "2007-047A",
        "meta_epoch": "2025-12-23T05:22:00.882048",
        "meta_mean_motion": 2.00564099,
        "meta_eccentricity": 0.01640403,
        "meta_inclination": 53.9621,
        "meta_ra_of_asc_node": 87.3254,
        "meta_arg_of_pericenter": 85.3777,
        "meta_mean_anomaly": 276.5133,
        "meta_ephemeris_type": 0,
        "meta_classification_type": "U",
        "meta_norad_cat_id": 32260,
        "meta_element_set_no": 999,
        "meta_rev_at_epoch": 13328,
        "meta_bstar": 0,
        "meta_mean_motion_dot": -6e-08,
        "meta_mean_motion_ddot": 0,
        "tle_line1": "1 32260U 07047A   25357.22362132 -.00000006  00000+0  00000+0 0  9999",
        "tle_line2": "2 32260  53.9621  87.3254 0164040  85.3777 276.5133  2.00564099133281"
      },
      "geometry": {
        "type": "Point",
        "coordinates": [
          -153.32178252415704,
          50.1413587242653
        ]
      }
    },
    {
      "type": "Feature",
      "properties": {
        "norad_id": 32384,
        "name": "GPS BIIRM-5 (PRN 29)",
        "group": "gps-ops",
        "lat": -43.56339694222766,
        "lon": 142.5110973355143,
        "alt_km": 20166.253257544555,
        "timestamp": "2025-12-25T20:42:38.946626+00:00",
        "meta_object_name": "GPS BIIRM-5 (PRN 29)",
        "meta_object_id": "2007-062A",
        "meta_epoch": "2025-12-25T01:49:33.945312",
        "meta_mean_motion": 2.00549305,
        "meta_eccentricity": 0.00313889,
        "meta_inclination": 55.1716,
        "meta_ra_of_asc_node": 281.1512,
        "meta_arg_of_pericenter": 162.3176,
        "meta_mean_anomaly": 226.2935,
        "meta_ephemeris_type": 0,
        "meta_classification_type": "U",
        "meta_norad_cat_id": 32384,
        "meta_element_set_no": 999,
        "meta_rev_at_epoch": 13202,
        "meta_bstar": 0,
        "meta_mean_motion_dot": -2.4e-07,
        "meta_mean_motion_ddot": 0,
        "tle_line1": "1 32384U 07062A   25359.07608733 -.00000024  00000+0  00000+0 0  9998",
        "tle_line2": "2 32384  55.1716 281.1512 0031388 162.3176 226.2935  2.00549305132021"
      },
      "geometry": {
        "type": "Point",
        "coordinates": [
          142.5110973355143,
          -43.56339694222766
        ]
      }
    },
    {
      "type": "Feature",
      "properties": {
        "norad_id": 32711,
        "name": "GPS BIIRM-6 (PRN 07)",
        "group": "gps-ops",
        "lat": 16.92988691085212,
        "lon": -35.71771454213209,
        "alt_km": 20132.749416380604,
        "timestamp": "2025-12-25T20:42:38.946637+00:00",
        "meta_object_name": "GPS BIIRM-6 (PRN 07)",
        "meta_object_id": "2008-012A",
        "meta_epoch": "2025-12-24T15:20:51.280224",
        "meta_mean_motion": 2.00566104,
        "meta_eccentricity": 0.0202975,
        "meta_inclination": 54.4784,
        "meta_ra_of_asc_node": 156.8979,
        "meta_arg_of_pericenter": 245.0885,
        "meta_mean_anomaly": 112.7759,
        "meta_ephemeris_type": 0,
        "meta_classification_type": "U",
        "meta_norad_cat_id": 32711,
        "meta_element_set_no": 999,
        "meta_rev_at_epoch": 13025,
        "meta_bstar": 0,
        "meta_mean_motion_dot": 9.3e-07,
        "meta_mean_motion_ddot": 0,
        "tle_line1": "1 32711U 08012A   25358.63948241  .00000093  00000+0  00000+0 0  9995",
        "tle_line2": "2 32711  54.4784 156.8979 0202975 245.0885 112.7759  2.00566104130257"
      },
      "geometry": {
        "type": "Point",
        "coordinates": [
          -35.71771454213209,
          16.92988691085212
        ]
      }
    },
    {
      "type": "Feature",
      "properties": {
        "norad_id": 35752,
        "name": "GPS BIIRM-8 (PRN 05)",
        "group": "gps-ops",
        "lat": -1.4285694365439108,
        "lon": -144.75994555101835,
        "alt_km": 20205.758726271222,
        "timestamp": "2025-12-25T20:42:38.946648+00:00",
        "meta_object_name": "GPS BIIRM-8 (PRN 05)",
        "meta_object_id": "2009-043A",
        "meta_epoch": "2025-12-25T01:50:05.502048",
        "meta_mean_motion": 2.00564872,
        "meta_eccentricity": 0.00515726,
        "meta_inclination": 56.0995,
        "meta_ra_of_asc_node": 34.2967,
        "meta_arg_of_pericenter": 81.7083,
        "meta_mean_anomaly": 251.5447,
        "meta_ephemeris_type": 0,
        "meta_classification_type": "U",
        "meta_norad_cat_id": 35752,
        "meta_element_set_no": 999,
        "meta_rev_at_epoch": 11986,
        "meta_bstar": 0,
        "meta_mean_motion_dot": -5.1e-07,
        "meta_mean_motion_ddot": 0,
        "tle_line1": "1 35752U 09043A   25359.07645257 -.00000051  00000+0  00000+0 0  9993",
        "tle_line2": "2 35752  56.0995  34.2967 0051572  81.7083 251.5447  2.00564872119863"
      },
      "geometry": {
        "type": "Point",
        "coordinates": [
          -144.75994555101835,
          -1.4285694365439108
        ]
      }
    },
    {
      "type": "Feature",
      "properties": {
        "norad_id": 36585,
        "name": "GPS BIIF-1  (PRN 25)",
        "group": "gps-ops",
        "lat": -45.86846843944116,
        "lon": 167.7230328517563,
        "alt_km": 20389.701619296986,
        "timestamp": "2025-12-25T20:42:38.946660+00:00",
        "meta_object_name": "GPS BIIF-1  (PRN 25)",
        "meta_object_id": "2010-022A",
        "meta_epoch": "2025-12-25T02:37:13.768896",
        "meta_mean_motion": 2.005538,
        "meta_eccentricity": 0.01265811,
        "meta_inclination": 54.2983,
        "meta_ra_of_asc_node": 215.575,
        "meta_arg_of_pericenter": 65.232,
        "meta_mean_anomaly": 49.6235,
        "meta_ephemeris_type": 0,
        "meta_classification_type": "U",
        "meta_norad_cat_id": 36585,
        "meta_element_set_no": 999,
        "meta_rev_at_epoch": 11410,
        "meta_bstar": 0,
        "meta_mean_motion_dot": 7.6e-07,
        "meta_mean_motion_ddot": 0,
        "tle_line1": "1 36585U 10022A   25359.10918714  .00000076  00000+0  00000+0 0  9998",
        "tle_line2": "2 36585  54.2983 215.5750 0126581  65.2320  49.6235  2.00553800114105"
      },
      "geometry": {
        "type": "Point",
        "coordinates": [
          167.7230328517563,
          -45.86846843944116
        ]
      }
    }
  ]
}